0 FENGYUN 1C DEB
1 30710U 99025ARU 13281.45080049  .00001941  00000-0  16464-2 0  6547
2 30710 102.7556 010.0500 0280495 275.9407 080.9938 13.72918389335231
0 FENGYUN 1C DEB
1 30710U 99025ARU 13283.05395160  .00002044  00000-0  17295-2 0  6557
2 30710 102.7558 012.1805 0280509 272.1806 084.7416 13.72926966335459
0 FENGYUN 1C DEB
1 30710U 99025ARU 13285.09431994  .00002172  00000-0  18349-2 0  6563
2 30710 102.7572 014.8955 0280276 267.0771 089.8886 13.72938230335730
0 FENGYUN 1C DEB
1 30710U 99025ARU 13287.06179000  .00002286  00000-0  19264-2 0  6573
2 30710 102.7572 017.5114 0280593 262.6962 094.2401 13.72949908336000
0 FENGYUN 1C DEB
1 30710U 99025ARU 13290.04943185  .00002907  00000-0  24199-2 0  6582
2 30710 102.7591 021.4870 0283102 255.5814 101.5497 13.72974470336414
0 FENGYUN 1C DEB
1 30710U 99025ARU 13291.06955523  .00002648  00000-0  22250-2 0  6593
2 30710 102.7580 022.8487 0279669 253.4438 103.4965 13.72976720336559
0 FENGYUN 1C DEB
1 30710U 99025ARU 13294.05716961  .00002896  00000-0  24136-2 0  6608
2 30710 102.7574 026.8117 0282294 246.4857 110.7829 13.72998871336967
0 FENGYUN 1C DEB
1 30710U 99025ARU 13295.07728509  .00003005  00000-0  25038-2 0  6618
2 30710 102.7558 028.1669 0281856 244.5069 112.6812 13.73007115337106
